{
  "last_updated": "2026-07-03T06:00:02.492459",
  "satellites": {
    "98592": {
      "name": "DUTHSat-2",
      "norad_id": "98592",
      "tle": "1 64530U 25135C   26183.59388147  .00012800  00000-0  48117-3 0  9994\n2 64530  97.4641 299.5014 0006055 130.5024 229.6744 15.27279444 57283",
      "epoch": "2026-07-02T14:15:11.359008",
      "fetched_at": "2026-07-03T06:00:03.164785",
      "source": "satnogs"
    },
    "98530": {
      "name": "LAMARR",
      "norad_id": "98530",
      "tle": "1 66673U 25276H   26026.90917087  .00034524  00000-0  16680-2 0  9998\n2 66673  97.4301 102.8338 0007597 141.5941 218.5835 15.18529012  8972",
      "epoch": "2026-01-26T21:49:12.363168",
      "fetched_at": "2026-01-28T06:00:02.884758",
      "source": "satnogs",
      "note": "Using previous TLE (fetch/manual failed today)"
    },
    "98529": {
      "name": "DIRAC",
      "norad_id": "98529",
      "tle": "1 66681U 25276R   26026.63281774  .00024563  00000-0  11745-2 0  9993\n2 66681  97.4280 102.5712 0006320 148.4115 211.7500 15.18972786  8932",
      "epoch": "2026-01-26T15:11:15.452736",
      "fetched_at": "2026-01-28T06:00:02.937152",
      "source": "satnogs",
      "note": "Using previous TLE (fetch/manual failed today)"
    },
    "98518": {
      "name": "MICE-1",
      "norad_id": "98518",
      "tle": "1 66684U 25276U   26183.19633564  .00004480  00000-0  21545-3 0  9995\n2 66684  97.4264 256.5753 0003902 311.4052  48.6847 15.19295836 32693",
      "epoch": "2026-07-02T04:42:43.399296",
      "fetched_at": "2026-07-03T06:00:03.350579",
      "source": "satnogs"
    },
    "68416": {
      "name": "PeakSat",
      "norad_id": "68416",
      "tle": "1 68416U 26067A   26183.63238064  .00007937  00000-0  37498-3 0  9998\n2 68416  97.4556 142.0200 0001949 156.9475 203.1847 15.19679618 14296",
      "epoch": "2026-07-02T15:10:37.687296",
      "fetched_at": "2026-07-03T06:00:03.402965",
      "source": "satnogs"
    },
    "98370": {
      "name": "OptiSat",
      "norad_id": "98370",
      "tle": "1 69696U 69696    26089.46895426  .00000000  00000-0  00000-0 0 00004\n2 69696 097.4414 038.3720 0003145 156.7651 191.1423 15.18459822000011",
      "epoch": "2026-03-30T11:15:17.648064",
      "fetched_at": "2026-04-17T12:47:18.541523",
      "source": "manual"
    },
    "68468": {
      "name": "ERMIS-1",
      "norad_id": "68468",
      "tle": "1 68468U 26067BE  26183.61727933  .00010175  00000-0  50370-3 0  9993\n2 68468  97.4560 141.7481 0007189  22.7536 337.4015 15.17959236 14276",
      "epoch": "2026-07-02T14:48:52.934112",
      "fetched_at": "2026-07-03T06:00:03.473709",
      "source": "satnogs"
    },
    "68420": {
      "name": "ERMIS-2",
      "norad_id": "68420",
      "tle": "1 68420U 26067E   26183.62582748  .00011213  00000-0  52274-3 0  9994\n2 68420  97.4486 141.9519 0002421 124.0147 236.1318 15.20041329 14295",
      "epoch": "2026-07-02T15:01:11.494272",
      "fetched_at": "2026-07-03T06:00:03.528387",
      "source": "satnogs"
    },
    "98367": {
      "name": "ERMIS-3",
      "norad_id": "98367",
      "tle": "1 68425U 26067K   26183.66891661  .00006757  00000-0  32644-3 0  9996\n2 68425  97.4599 142.0240 0000509  71.0729 289.0561 15.18965402 14291",
      "epoch": "2026-07-02T16:03:14.395104",
      "fetched_at": "2026-07-03T06:00:03.609864",
      "source": "satnogs"
    },
    "69021": {
      "name": "Helios",
      "norad_id": "69021",
      "tle": "1 69021U 26100AT  26183.70837545  .00007742  00000-0  36017-3 0  9996\n2 69021  97.4008  81.1894 0002939 309.7578  50.3398 15.20219750  9167",
      "epoch": "2026-07-02T17:00:03.638880",
      "fetched_at": "2026-07-03T06:00:03.669319",
      "source": "satnogs"
    },
    "69020": {
      "name": "Selene",
      "norad_id": "69020",
      "tle": "1 69020U 26100AS  26183.64738608  .00006924  00000-0  32420-3 0  9993\n2 69020  97.4024  81.1340 0002304 302.9679  57.1334 15.20036456  9157",
      "epoch": "2026-07-02T15:32:14.157312",
      "fetched_at": "2026-07-03T06:00:03.742282",
      "source": "satnogs"
    }
  },
  "fetch_log": []
}